NORAD_CAT_ID,OBJECT_NAME,OBJECT_TYPE,EPOCH,MEAN_MOTION,ECCENTRICITY,INCLINATION,RA_OF_ASC_NODE,ARG_OF_PERICENTER,MEAN_ANOMALY,BSTAR,MEAN_MOTION_DOT,MEAN_MOTION_DDOT,TLE_LINE0,TLE_LINE1,TLE_LINE2,SEMIMAJOR_AXIS,PERIOD,APOGEE,PERIGEE,DECAYED
56771.0,STARLINK-6339,PAYLOAD,2024-07-19 14:19:32,14.98328419,0.0002968,69.9993,12.6202,267.7834,92.2985,5.1779e-05,5.25e-06,0.0,0 STARLINK-6339,1 56771U 23078E   24201.59690926  .00000525  00000-0  51779-4 0  9996,2 56771  69.9993  12.6202 0002968 267.7834  92.2985 14.98328419 64079,6950.198,96.107,574.126,570.0,0.0
56771.0,STARLINK-6339,PAYLOAD,2024-07-19 20:44:05,14.98329679,0.0002979,69.9993,11.9468,270.019,90.0628,5.9342e-05,6.15e-06,0.0,0 STARLINK-6339,1 56771U 23078E   24201.86394851  .00000615  00000-0  59342-4 0  9998,2 56771  69.9993  11.9468 0002979 270.0190  90.0628 14.98329679 64113,6950.194,96.107,574.129,569.988,0.0
56771.0,STARLINK-6339,PAYLOAD,2024-07-20 12:45:25,14.98330418,0.0002944,69.9995,10.2637,270.4876,89.5946,-2.7264e-05,-4.18e-06,0.0,0 STARLINK-6339,1 56771U 23078E   24202.53155062 -.00000418  00000-0 -27264-4 0  9993,2 56771  69.9995  10.2637 0002944 270.4876  89.5946 14.98330418 64470,6950.192,96.107,574.103,570.01,0.0
56771.0,STARLINK-6339,PAYLOAD,2024-07-20 14:21:34,14.98330531,0.0002947,69.9996,10.0953,270.419,89.6632,-2.483e-05,-3.89e-06,0.0,0 STARLINK-6339,1 56771U 23078E   24202.59831040 -.00000389  00000-0 -24830-4 0  9999,2 56771  69.9996  10.0953 0002947 270.4190  89.6632 14.98330531 64224,6950.191,96.107,574.104,570.008,0.0
56771.0,STARLINK-6339,PAYLOAD,2024-07-20 20:46:06,14.98330488,0.0002998,69.9996,9.4219,269.8243,90.2573,-3.9031e-05,-5.59e-06,0.0,0 STARLINK-6339,1 56771U 23078E   24202.86535054 -.00000559  00000-0 -39031-4 0  9993,2 56771  69.9996   9.4219 0002998 269.8243  90.2573 14.98330488 64265,6950.191,96.107,574.14,569.973,0.0
56771.0,STARLINK-6339,PAYLOAD,2024-07-21 12:47:26,14.98329829,0.0003078,69.9995,7.7376,269.5053,90.5753,-4.449e-06,-1.46e-06,0.0,0 STARLINK-6339,1 56771U 23078E   24203.53294978 -.00000146  00000-0 -44490-5 0  9993,2 56771  69.9995   7.7376 0003078 269.5053  90.5753 14.98329829 64625,6950.193,96.107,574.198,569.919,0.0
56771.0,STARLINK-6339,PAYLOAD,2024-07-21 14:23:34,14.98329801,0.0003082,69.9995,7.5692,269.5004,90.5802,-4.4349e-06,-1.46e-06,0.0,0 STARLINK-6339,1 56771U 23078E   24203.59970979 -.00000146  00000-0 -44349-5 0  9994,2 56771  69.9995   7.5692 0003082 269.5004  90.5802 14.98329801 64372,6950.194,96.107,574.201,569.916,0.0
56771.0,STARLINK-6339,PAYLOAD,2024-07-21 20:48:07,14.98331262,0.0003081,69.9996,6.896,269.6181,90.4625,1.2929e-05,6.1e-07,0.0,0 STARLINK-6339,1 56771U 23078E   24203.86674843  .00000061  00000-0  12929-4 0  9997,2 56771  69.9996   6.8960 0003081 269.6181  90.4625 14.98331262 64410,6950.189,96.107,574.195,569.913,0.0
56771.0,STARLINK-6339,PAYLOAD,2024-07-22 20:50:07,14.98333295,0.0003123,69.9997,4.3709,269.3425,90.7376,5.1447e-05,5.21e-06,0.0,0 STARLINK-6339,1 56771U 23078E   24204.86814508  .00000521  00000-0  51447-4 0  9991,2 56771  69.9997   4.3709 0003123 269.3425  90.7376 14.98333295 64560,6950.183,96.107,574.218,569.877,0.0
56771.0,STARLINK-6339,PAYLOAD,2024-07-23 09:39:12,14.98329515,0.0003051,69.9999,3.0242,269.8017,90.2792,1.7501e-05,1.16e-06,0.0,0 STARLINK-6339,1 56771U 23078E   24205.40222823  .00000116  00000-0  17501-4 0  9998,2 56771  69.9999   3.0242 0003051 269.8017  90.2792 14.98329515 64648,6950.194,96.107,574.18,569.939,0.0
56771.0,STARLINK-6339,PAYLOAD,2024-07-23 20:52:08,14.9833155,0.0003069,69.9999,1.8469,267.2109,92.8699,1.8368e-05,1.26e-06,0.0,0 STARLINK-6339,1 56771U 23078E   24205.86954631  .00000126  00000-0  18368-4 0  9990,2 56771  69.9999   1.8469 0003069 267.2109  92.8699 14.98331550 64970,6950.188,96.107,574.186,569.92,0.0
56771.0,STARLINK-6339,PAYLOAD,2024-07-24 09:41:13,14.98329777,0.0003034,69.9998,0.4996,269.9608,90.1203,-5.61e-06,-1.6e-06,0.0,0 STARLINK-6339,1 56771U 23078E   24206.40362743 -.00000160  00000-0 -56100-5 0  9995,2 56771  69.9998   0.4996 0003034 269.9608  90.1203 14.98329777 64794,6950.194,96.107,574.167,569.95,0.0
56771.0,STARLINK-6339,PAYLOAD,2024-07-24 20:54:09,14.98330628,0.0003047,69.9969,359.3188,263.7824,96.2988,2.1124e-05,1.59e-06,0.0,0 STARLINK-6339,1 56771U 23078E   24206.87094537  .00000159  00000-0  21124-4 0  9992,2 56771  69.9969 359.3188 0003047 263.7824  96.2988 14.98330628 65129,6950.191,96.107,574.174,569.938,0.0
56771.0,STARLINK-6339,PAYLOAD,2024-07-26 11:21:23,14.98330413,0.0003063,70.0,355.2809,269.7043,90.3765,5.2715e-06,-3e-07,0.0,0 STARLINK-6339,1 56771U 23078E   24208.47318574 -.00000030  00000-0  52715-5 0  9990,2 56771  70.0000 355.2809 0003063 269.7043  90.3765 14.98330413 65366,6950.192,96.107,574.185,569.928,0.0
56771.0,STARLINK-6339,PAYLOAD,2024-07-26 20:58:11,14.98333545,0.0003053,69.9986,354.2716,270.6585,89.4224,3.1061e-05,2.78e-06,0.0,0 STARLINK-6339,1 56771U 23078E   24208.87374258  .00000278  00000-0  31061-4 0  9998,2 56771  69.9986 354.2716 0003053 270.6585  89.4224 14.98333545 65169,6950.182,96.107,574.169,569.925,0.0
56771.0,STARLINK-6339,PAYLOAD,2024-07-27 03:22:43,14.98329867,0.0003426,69.9968,353.5966,268.9156,91.161,2.4221e-05,1.96e-06,0.0,0 STARLINK-6339,1 56771U 23078E   24209.14078334  .00000196  00000-0  24221-4 0  9994,2 56771  69.9968 353.5966 0003426 268.9156  91.1610 14.98329867 65202,6950.193,96.107,574.439,569.677,0.0
56771.0,STARLINK-6339,PAYLOAD,2024-07-27 11:23:24,14.98328527,0.0002996,69.9989,352.7565,272.3596,87.722,-1.2935e-05,-2.47e-06,0.0,0 STARLINK-6339,1 56771U 23078E   24209.47458763 -.00000247  00000-0 -12935-4 0  9996,2 56771  69.9989 352.7565 0002996 272.3596  87.7220 14.98328527 65513,6950.197,96.107,574.145,569.98,0.0
56771.0,STARLINK-6339,PAYLOAD,2024-07-27 21:00:12,14.98328589,0.0003036,69.9992,351.7467,272.8534,87.2277,-1.1745e-05,-2.33e-06,0.0,0 STARLINK-6339,1 56771U 23078E   24209.87514800 -.00000233  00000-0 -11745-4 0  9998,2 56771  69.9992 351.7467 0003036 272.8534  87.2277 14.98328589 65313,6950.197,96.107,574.172,569.952,0.0
56771.0,STARLINK-6339,PAYLOAD,2024-07-28 11:25:25,14.98327434,0.0003081,69.999,350.2306,270.4519,89.6287,0.00012533,1.403e-05,0.0,0 STARLINK-6339,1 56771U 23078E   24210.47598454  .00001403  00000-0  12533-3 0  9996,2 56771  69.9990 350.2306 0003081 270.4519  89.6287 14.98327434 65667,6950.201,96.107,574.207,569.924,0.0
56771.0,STARLINK-6339,PAYLOAD,2024-07-28 21:02:12,14.98337773,0.0003136,69.9997,349.2209,271.5967,88.4833,4.4446e-05,4.37e-06,0.0,0 STARLINK-6339,1 56771U 23078E   24210.87653900  .00000437  00000-0  44446-4 0  9993,2 56771  69.9997 349.2209 0003136 271.5967  88.4833 14.98337773 65463,6950.169,96.107,574.213,569.854,0.0
56771.0,STARLINK-6339,PAYLOAD,2024-07-29 09:51:18,14.9832635,0.0003035,70.0003,347.8748,273.8931,86.1881,1.6864e-05,1.08e-06,0.0,0 STARLINK-6339,1 56771U 23078E   24211.41062710  .00000108  00000-0  16864-4 0  9995,2 56771  70.0003 347.8748 0003035 273.8931  86.1881 14.98326350 65805,6950.204,96.107,574.179,569.96,0.0
56771.0,STARLINK-6339,PAYLOAD,2024-07-29 19:28:06,14.98328629,0.0003033,70.0004,346.8647,273.956,86.1253,3.4069e-05,3.14e-06,0.0,0 STARLINK-6339,1 56771U 23078E   24211.81118568  .00000314  00000-0  34069-4 0  9998,2 56771  70.0004 346.8647 0003033 273.9560  86.1253 14.98328629 65602,6950.197,96.107,574.17,569.954,0.0
56771.0,STARLINK-6339,PAYLOAD,2024-07-30 09:53:18,14.98333043,0.0002991,70.0005,345.3497,273.447,86.6347,-1.2677e-05,-2.44e-06,0.0,0 STARLINK-6339,1 56771U 23078E   24212.41202411 -.00000244  00000-0 -12677-4 0  9991,2 56771  70.0005 345.3497 0002991 273.4470  86.6347 14.98333043 65950,6950.183,96.107,574.127,569.97,0.0
56771.0,STARLINK-6339,PAYLOAD,2024-07-31 13:07:36,14.98328222,0.0003133,70.0,342.4883,269.8541,90.2259,-1.3508e-05,-2.54e-06,0.0,0 STARLINK-6339,1 56771U 23078E   24213.54694645 -.00000254  00000-0 -13508-4 0  9995,2 56771  70.0000 342.4883 0003133 269.8541  90.2259 14.98328222 66125,6950.198,96.107,574.241,569.886,0.0
56771.0,STARLINK-6339,PAYLOAD,2024-07-31 14:43:44,14.98327745,0.0003122,70.0,342.3201,268.898,91.1821,-1.8078e-05,-3.09e-06,0.0,0 STARLINK-6339,1 56771U 23078E   24213.61370690 -.00000309  00000-0 -18078-4 0  9992,2 56771  70.0000 342.3201 0003122 268.8980  91.1821 14.98327745 65877,6950.2,96.107,574.235,569.895,0.0
56771.0,STARLINK-6339,PAYLOAD,2024-07-31 19:32:08,14.9832931,0.0003145,70.0001,341.8151,268.0815,91.9984,-1.8012e-06,-1.15e-06,0.0,0 STARLINK-6339,1 56771U 23078E   24213.81398576 -.00000115  00000-0 -18012-5 0  9991,2 56771  70.0001 341.8151 0003145 268.0815  91.9984 14.98329310 65902,6950.195,96.107,574.246,569.874,0.0
56771.0,STARLINK-6339,PAYLOAD,2024-08-01 14:45:44,14.98337119,0.0003176,70.0,339.7948,266.8218,93.2578,9.0547e-05,9.88e-06,0.0,0 STARLINK-6339,1 56771U 23078E   24214.61509736  .00000988  00000-0  90547-4 0  9990,2 56771  70.0000 339.7948 0003176 266.8218  93.2578 14.98337119 66022,6950.171,96.107,574.243,569.829,0.0
56771.0,STARLINK-6339,PAYLOAD,2024-08-01 17:58:00,14.98340909,0.0003102,70.0002,339.4585,267.6966,92.3838,0.0001272,1.425e-05,0.0,0 STARLINK-6339,1 56771U 23078E   24214.74861343  .00001425  00000-0  12720-3 0  9992,2 56771  70.0002 339.4585 0003102 267.6966  92.3838 14.98340909 66307,6950.159,96.106,574.18,569.868,0.0
56771.0,STARLINK-6339,PAYLOAD,2024-08-02 01:58:40,14.98331328,0.000347,70.0002,338.6166,270.9047,89.1715,7.2789e-05,7.76e-06,0.0,0 STARLINK-6339,1 56771U 23078E   24215.08241823  .00000776  00000-0  72789-4 0  9995,2 56771  70.0002 338.6166 0003470 270.9047  89.1715 14.98331328 66356,6950.189,96.107,574.465,569.642,0.0
56771.0,STARLINK-6339,PAYLOAD,2024-08-02 13:11:38,14.98320743,0.0003072,70.0001,337.438,269.2544,90.8263,-4.362e-05,-6.13e-06,0.0,0 STARLINK-6339,1 56771U 23078E   24215.54975134 -.00000613  00000-0 -43620-4 0  9999,2 56771  70.0001 337.4380 0003072 269.2544  90.8263 14.98320743 66425,6950.222,96.108,574.222,569.951,0.0
